{
  "type": "FeatureCollection",
  "features": [
    {
      "type": "Feature",
      "properties": {
        "norad_id": 36036,
        "name": "SMOS",
        "group": "resource",
        "lat": 45.289264250552286,
        "lon": 170.6271803523154,
        "alt_km": 754.769064666315,
        "timestamp": "2025-12-20T07:33:50.460380+00:00",
        "meta_object_name": "SMOS",
        "meta_object_id": "2009-059A",
        "meta_epoch": "2025-12-19T11:20:10.902624",
        "meta_mean_motion": 14.39746894,
        "meta_eccentricity": 0.0001083,
        "meta_inclination": 98.438,
        "meta_ra_of_asc_node": 178.4211,
        "meta_arg_of_pericenter": 82.411,
        "meta_mean_anomaly": 277.7201,
        "meta_ephemeris_type": 0,
        "meta_classification_type": "U",
        "meta_norad_cat_id": 36036,
        "meta_element_set_no": 999,
        "meta_rev_at_epoch": 84759,
        "meta_bstar": 0.00010424,
        "meta_mean_motion_dot": 2.83e-06,
        "meta_mean_motion_ddot": 0,
        "tle_line1": "1 36036U 09059A   25353.47234841  .00000283  00000+0  10424-3 0  9998",
        "tle_line2": "2 36036  98.4380 178.4211 0001083  82.4110 277.7201 14.39746894847598"
      },
      "geometry": {
        "type": "Point",
        "coordinates": [
          170.6271803523154,
          45.289264250552286
        ]
      }
    },
    {
      "type": "Feature",
      "properties": {
        "norad_id": 36110,
        "name": "YAOGAN-7",
        "group": "resource",
        "lat": -5.229175788089249,
        "lon": 55.304393996029134,
        "alt_km": 634.6241416959119,
        "timestamp": "2025-12-20T07:33:50.460392+00:00",
        "meta_object_name": "YAOGAN-7",
        "meta_object_id": "2009-069A",
        "meta_epoch": "2025-12-19T04:43:30.237600",
        "meta_mean_motion": 14.77741395,
        "meta_eccentricity": 0.0023351,
        "meta_inclination": 98.0297,
        "meta_ra_of_asc_node": 234.9307,
        "meta_arg_of_pericenter": 259.2514,
        "meta_mean_anomaly": 100.6067,
        "meta_ephemeris_type": 0,
        "meta_classification_type": "U",
        "meta_norad_cat_id": 36110,
        "meta_element_set_no": 999,
        "meta_rev_at_epoch": 86304,
        "meta_bstar": 7.003e-05,
        "meta_mean_motion_dot": 4.51e-06,
        "meta_mean_motion_ddot": 0,
        "tle_line1": "1 36110U 09069A   25353.19687775  .00000451  00000+0  70030-4 0  9996",
        "tle_line2": "2 36110  98.0297 234.9307 0023351 259.2514 100.6067 14.77741395863047"
      },
      "geometry": {
        "type": "Point",
        "coordinates": [
          55.304393996029134,
          -5.229175788089249
        ]
      }
    },
    {
      "type": "Feature",
      "properties": {
        "norad_id": 36605,
        "name": "TANDEM-X",
        "group": "resource",
        "lat": 60.58520807863447,
        "lon": -167.00543225158412,
        "alt_km": 501.62557827414184,
        "timestamp": "2025-12-20T07:33:50.460402+00:00",
        "meta_object_name": "TANDEM-X",
        "meta_object_id": "2010-030A",
        "meta_epoch": "2025-12-19T12:04:27.806304",
        "meta_mean_motion": 15.19152689,
        "meta_eccentricity": 0.0001806,
        "meta_inclination": 97.4444,
        "meta_ra_of_asc_node": 358.7845,
        "meta_arg_of_pericenter": 78.9569,
        "meta_mean_anomaly": 281.1868,
        "meta_ephemeris_type": 0,
        "meta_classification_type": "U",
        "meta_norad_cat_id": 36605,
        "meta_element_set_no": 999,
        "meta_rev_at_epoch": 85936,
        "meta_bstar": 3.4902e-05,
        "meta_mean_motion_dot": 6.66e-06,
        "meta_mean_motion_ddot": 0,
        "tle_line1": "1 36605U 10030A   25353.50309961  .00000666  00000+0  34902-4 0  9994",
        "tle_line2": "2 36605  97.4444 358.7845 0001806  78.9569 281.1868 15.19152689859365"
      },
      "geometry": {
        "type": "Point",
        "coordinates": [
          -167.00543225158412,
          60.58520807863447
        ]
      }
    },
    {
      "type": "Feature",
      "properties": {
        "norad_id": 36795,
        "name": "CARTOSAT-2B",
        "group": "resource",
        "lat": 39.64470782491781,
        "lon": -130.39170731813468,
        "alt_km": 629.6202972807941,
        "timestamp": "2025-12-20T07:33:50.460413+00:00",
        "meta_object_name": "CARTOSAT-2B",
        "meta_object_id": "2010-035A",
        "meta_epoch": "2025-12-19T22:48:53.967168",
        "meta_mean_motion": 14.78732633,
        "meta_eccentricity": 0.001284,
        "meta_inclination": 97.7848,
        "meta_ra_of_asc_node": 42.7469,
        "meta_arg_of_pericenter": 55.2698,
        "meta_mean_anomaly": 304.9721,
        "meta_ephemeris_type": 0,
        "meta_classification_type": "U",
        "meta_norad_cat_id": 36795,
        "meta_element_set_no": 999,
        "meta_rev_at_epoch": 83336,
        "meta_bstar": 1.6781277e-05,
        "meta_mean_motion_dot": 7.3e-07,
        "meta_mean_motion_ddot": 0,
        "tle_line1": "1 36795U 10035A   25353.95062462  .00000073  00000+0  16781-4 0  9997",
        "tle_line2": "2 36795  97.7848  42.7469 0012840  55.2698 304.9721 14.78732633833360"
      },
      "geometry": {
        "type": "Point",
        "coordinates": [
          -130.39170731813468,
          39.64470782491781
        ]
      }
    },
    {
      "type": "Feature",
      "properties": {
        "norad_id": 36834,
        "name": "YAOGAN-10",
        "group": "resource",
        "lat": 20.07926360260553,
        "lon": 11.164982560597242,
        "alt_km": 614.2821366265107,
        "timestamp": "2025-12-20T07:33:50.460423+00:00",
        "meta_object_name": "YAOGAN-10",
        "meta_object_id": "2010-038A",
        "meta_epoch": "2025-12-19T23:33:07.306848",
        "meta_mean_motion": 14.84634409,
        "meta_eccentricity": 0.00014426,
        "meta_inclination": 97.9135,
        "meta_ra_of_asc_node": 13.7481,
        "meta_arg_of_pericenter": 79.3438,
        "meta_mean_anomaly": 317.9203,
        "meta_ephemeris_type": 0,
        "meta_classification_type": "U",
        "meta_norad_cat_id": 36834,
        "meta_element_set_no": 999,
        "meta_rev_at_epoch": 83061,
        "meta_bstar": 0.00018108155,
        "meta_mean_motion_dot": 1.477e-05,
        "meta_mean_motion_ddot": 0,
        "tle_line1": "1 36834U 10038A   25353.98133457  .00001477  00000+0  18108-3 0  9993",
        "tle_line2": "2 36834  97.9135  13.7481 0001442  79.3438 317.9203 14.84634409830615"
      },
      "geometry": {
        "type": "Point",
        "coordinates": [
          11.164982560597242,
          20.07926360260553
        ]
      }
    },
    {
      "type": "Feature",
      "properties": {
        "norad_id": 37216,
        "name": "COSMO-SKYMED 4",
        "group": "resource",
        "lat": -55.54985140468789,
        "lon": -16.12370706685682,
        "alt_km": 630.4808543503786,
        "timestamp": "2025-12-20T07:33:50.460434+00:00",
        "meta_object_name": "COSMO-SKYMED 4",
        "meta_object_id": "2010-060A",
        "meta_epoch": "2025-12-19T22:23:59.858016",
        "meta_mean_motion": 14.82153902,
        "meta_eccentricity": 0.00014074,
        "meta_inclination": 97.8798,
        "meta_ra_of_asc_node": 175.1478,
        "meta_arg_of_pericenter": 83.1812,
        "meta_mean_anomaly": 276.9561,
        "meta_ephemeris_type": 0,
        "meta_classification_type": "U",
        "meta_norad_cat_id": 37216,
        "meta_element_set_no": 999,
        "meta_rev_at_epoch": 81801,
        "meta_bstar": 0.00011291685,
        "meta_mean_motion_dot": 8.47e-06,
        "meta_mean_motion_ddot": 0,
        "tle_line1": "1 37216U 10060A   25353.93333169  .00000847  00000+0  11292-3 0  9997",
        "tle_line2": "2 37216  97.8798 175.1478 0001407  83.1812 276.9561 14.82153902818016"
      },
      "geometry": {
        "type": "Point",
        "coordinates": [
          -16.12370706685682,
          -55.54985140468789
        ]
      }
    },
    {
      "type": "Feature",
      "properties": {
        "norad_id": 37387,
        "name": "RESOURCESAT-2",
        "group": "resource",
        "lat": -7.3735525174973535,
        "lon": 58.979545419911325,
        "alt_km": 819.9525503920877,
        "timestamp": "2025-12-20T07:33:50.460445+00:00",
        "meta_object_name": "RESOURCESAT-2",
        "meta_object_id": "2011-015A",
        "meta_epoch": "2025-12-19T21:27:49.882176",
        "meta_mean_motion": 14.21599931,
        "meta_eccentricity": 0.0006096,
        "meta_inclination": 98.7868,
        "meta_ra_of_asc_node": 57.4138,
        "meta_arg_of_pericenter": 23.4312,
        "meta_mean_anomaly": 336.7142,
        "meta_ephemeris_type": 0,
        "meta_classification_type": "U",
        "meta_norad_cat_id": 37387,
        "meta_element_set_no": 999,
        "meta_rev_at_epoch": 76070,
        "meta_bstar": 6.7878754e-05,
        "meta_mean_motion_dot": 1.04e-06,
        "meta_mean_motion_ddot": 0,
        "tle_line1": "1 37387U 11015A   25353.89432734  .00000104  00000+0  67879-4 0  9999",
        "tle_line2": "2 37387  98.7868  57.4138 0006096  23.4312 336.7142 14.21599931760700"
      },
      "geometry": {
        "type": "Point",
        "coordinates": [
          58.979545419911325,
          -7.3735525174973535
        ]
      }
    }
  ]
}